NSS-7                   
1 27414U 02019A   23149.00375479 -.00000145  00000+0  00000+0 0  9993
2 27414   6.7109  68.3696 0002585 359.7379 159.5013  1.00271248 77377
AQUA                    
1 27424U 02022A   23149.14253289  .00000849  00000+0  19466-3 0  9997
2 27424  98.2864  93.6240 0000941 103.8986  11.5808 14.58066393120585
DIRECTV 5 (TEMPO 1)     
1 27426U 02023A   23149.21043838 -.00000041  00000+0  00000+0 0  9990
2 27426   2.0088  89.0790 0003295 332.0588 150.9906  1.00272095 77125
INTELSAT 905 (IS-905)   
1 27438U 02027A   23148.34771549 -.00000172  00000+0  00000+0 0  9992
2 27438   3.9271  82.8910 0002674 334.4923 288.9302  1.00271108 40177
GALAXY 3C (G-3C)        
1 27445U 02030A   23148.44436956 -.00000140  00000+0  00000+0 0  9990
2 27445   0.8406  90.8263 0000609  81.4408 138.5882  1.00272410 35303
COSMOS 2390             
1 27464U 02036A   23148.92854150  .00000049  00000+0  27663-3 0  9995
2 27464  82.4821 322.2742 0025501 176.2441 183.8836 12.44589451948922
COSMOS 2391             
1 27465U 02036B   23148.91177087  .00000036  00000+0  18486-3 0  9991
2 27465  82.4816 319.2746 0026469 171.8090 188.3428 12.44911377949061
INTELSAT 906 (IS-906)   
1 27513U 02041A   23149.09910729  .00000029  00000+0  00000+0 0  9990
2 27513   2.9514  86.4662 0004469 351.2257 268.4864  1.00271233 75796
INTEGRAL                
1 27540U 02048A   23149.18565113  .00000490  00000+0  00000+0 0  9992
2 27540  83.5766  39.7848 8777733 292.0451 132.5880  0.37577151 22433
TDRS 10                 
1 27566U 02055A   23148.60680648  .00000099  00000+0  00000+0 0  9990
2 27566   8.8403  47.9472 0008496 348.3342 256.8724  1.00274719 75049
NSS-6                   
1 27603U 02057A   23149.03521617  .00000122  00000+0  00000+0 0  9999
2 27603   2.4884  87.6153 0003382 337.3847  24.5116  1.00275605 74856
LATINSAT B              
1 27606U 02058B   23148.91894655  .00000551  00000+0  10160-3 0  9992
2 27606  64.5567  58.7411 0083869 233.5260 125.8093 14.73362733 97572
SAUDISAT 1C (SO-50)     
1 27607U 02058C   23148.87221724  .00001287  00000+0  19370-3 0  9998
2 27607  64.5547 324.1432 0070799 228.5382 130.9628 14.77253143 99583
LATINSAT A              
1 27612U 02058H   23148.55358709  .00000704  00000+0  10863-3 0  9994
2 27612  64.5535 173.6731 0042588 220.1311 139.6647 14.80804113102169
NIMIQ 2                 
1 27632U 02062A   23148.44632934 -.00000055  00000+0  00000+0 0  9992
2 27632   6.8144  67.8481 0003698   5.6396 223.7568  1.00273252 32992
CORIOLIS                
1 27640U 03001A   23149.04784804  .00000123  00000+0  79538-4 0  9998
2 27640  98.7146 157.4596 0014178 178.5637 181.5582 14.19261073 55960
SORCE                   
1 27651U 03004A   23149.16937899  .00002696  00000+0  27480-3 0  9995
2 27651  39.9942  84.9030 0019500  23.1564 337.0101 14.91894774104698
NAVSTAR 51 (USA 166)    
1 27663U 03005A   23148.92133543 -.00000036  00000+0  00000+0 0  9998
2 27663  55.2968 259.3274 0131615  44.5107  54.4839  2.00571735148940
USA 167                 
1 27691U 03008A   23148.44077221  .00000063  00000+0  00000+0 0  9998
2 27691   8.7252  52.3254 0001072 354.3394 227.8273  1.00274051 21760
NAVSTAR 52 (USA 168)    
1 27704U 03010A   23148.28876101 -.00000088  00000+0  00000+0 0  9990
2 27704  55.1065   9.3659 0248650 316.3187 263.1758  2.00570504147726
USA 169 (MILSTAR-2 4)   
1 27711U 03012A   23148.96636111 -.00000230  00000+0  00000+0 0  9999
2 27711  10.6440  38.0078 0100437 353.5150 354.7473  1.00273114 20462
GALAXY 12 (G-12)        
1 27715U 03013B   23148.42109306  .00000095  00000+0  00000+0 0  9994
2 27715   4.1368  81.8840 0001124 282.1869 260.7469  1.00199217 40906
ASIASAT 4               
1 27718U 03014A   23149.11716413 -.00000207  00000+0  00000+0 0  9994
2 27718   1.8413  89.7163 0003076 329.4748  16.9284  1.00272370 73744
HELLAS-SAT 2            
1 27811U 03020A   23148.55361773 -.00000069  00000+0  00000+0 0  9993
2 27811   4.5498  80.8328 0005833 344.2093  10.0968  1.00271782 31651
THURAYA-2               
1 27825U 03026A   23148.90881524  .00000138  00000+0  00000+0 0  9990
2 27825   7.1811  34.6024 0002333  22.7429 199.9984  1.00272943 73164
OPTUS C1                
1 27831U 03028B   23149.11716413 -.00000135  00000+0  00000+0 0  9995
2 27831   4.0700  82.5905 0006158 343.7893  17.9225  1.00271346 73145
MOST                    
1 27843U 03031D   23148.93485100  .00000094  00000+0  63637-4 0  9990
2 27843  98.7066 156.4826 0009078 226.9928 133.0489 14.20796307 32312
CUTE-1 (CO-55)          
1 27844U 03031E   23148.91036387  .00000345  00000+0  17304-3 0  9996
2 27844  98.6777 156.4499 0009893 174.2712 185.8581 14.22772300 32999
CUBESAT XI-IV (CO-57)   
1 27848U 03031J   23148.28168349  .00000290  00000+0  14995-3 0  9996
2 27848  98.6814 156.2536 0009399 191.1279 168.9692 14.22283507 32678
GALAXY 23 (G-23)        
1 27854U 03034A   23148.42965733  .00000025  00000+0  00000+0 0  9998
2 27854   0.3109  95.0834 0002978 329.9202 214.3894  1.00272655 77354
SCISAT 1                
1 27858U 03036A   23148.62547566  .00000647  00000+0  94157-4 0  9997
2 27858  73.9329 222.3180 0007723 191.0245 169.0762 14.78198563 66425
