OBJECT_NAME,OBJECT_ID,EPOCH,MEAN_MOTION,ECCENTRICITY,INCLINATION,RA_OF_ASC_NODE,ARG_OF_PERICENTER,MEAN_ANOMALY,EPHEMERIS_TYPE,CLASSIFICATION_TYPE,NORAD_CAT_ID,ELEMENT_SET_NO,REV_AT_EPOCH,BSTAR,MEAN_MOTION_DOT,MEAN_MOTION_DDOT
NSS-7,2002-019A,2023-05-29T00:05:24.413856,1.00271248,.0002585,6.7109,68.3696,359.7379,159.5013,0,U,27414,999,7737,0,-.145E-5,0
AQUA,2002-022A,2023-05-29T03:25:14.841696,14.58066393,.0000941,98.2864,93.6240,103.8986,11.5808,0,U,27424,999,12058,.19466E-3,.849E-5,0
DIRECTV 5 (TEMPO 1),2002-023A,2023-05-29T05:03:01.876032,1.00272095,.0003295,2.0088,89.0790,332.0588,150.9906,0,U,27426,999,7712,0,-.41E-6,0
INTELSAT 905 (IS-905),2002-027A,2023-05-28T08:20:42.618336,1.00271108,.0002674,3.9271,82.8910,334.4923,288.9302,0,U,27438,999,4017,0,-.172E-5,0
GALAXY 3C (G-3C),2002-030A,2023-05-28T10:39:53.529984,1.00272410,.0000609,0.8406,90.8263,81.4408,138.5882,0,U,27445,999,3530,0,-.14E-5,0
COSMOS 2390,2002-036A,2023-05-28T22:17:05.985600,12.44589451,.0025501,82.4821,322.2742,176.2441,183.8836,0,U,27464,999,94892,.27663E-3,.49E-6,0
COSMOS 2391,2002-036B,2023-05-28T21:52:57.003168,12.44911377,.0026469,82.4816,319.2746,171.8090,188.3428,0,U,27465,999,94906,.18486E-3,.36E-6,0
INTELSAT 906 (IS-906),2002-041A,2023-05-29T02:22:42.869856,1.00271233,.0004469,2.9514,86.4662,351.2257,268.4864,0,U,27513,999,7579,0,.29E-6,0
INTEGRAL,2002-048A,2023-05-29T04:27:20.257632,0.37577151,.8777733,83.5766,39.7848,292.0451,132.5880,0,U,27540,999,2243,0,.49E-5,0
TDRS 10,2002-055A,2023-05-28T14:33:48.079872,1.00274719,.0008496,8.8403,47.9472,348.3342,256.8724,0,U,27566,999,7504,0,.99E-6,0
NSS-6,2002-057A,2023-05-29T00:50:42.677088,1.00275605,.0003382,2.4884,87.6153,337.3847,24.5116,0,U,27603,999,7485,0,.122E-5,0
LATINSAT B,2002-058B,2023-05-28T22:03:16.981920,14.73362733,.0083869,64.5567,58.7411,233.5260,125.8093,0,U,27606,999,9757,.1016E-3,.551E-5,0
SAUDISAT 1C (SO-50),2002-058C,2023-05-28T20:55:59.569536,14.77253143,.0070799,64.5547,324.1432,228.5382,130.9628,0,U,27607,999,9958,.1937E-3,.1287E-4,0
LATINSAT A,2002-058H,2023-05-28T13:17:09.924576,14.80804113,.0042588,64.5535,173.6731,220.1311,139.6647,0,U,27612,999,10216,.10863E-3,.704E-5,0
NIMIQ 2,2002-062A,2023-05-28T10:42:42.854976,1.00273252,.0003698,6.8144,67.8481,5.6396,223.7568,0,U,27632,999,3299,0,-.55E-6,0
CORIOLIS,2003-001A,2023-05-29T01:08:54.070656,14.19261073,.0014178,98.7146,157.4596,178.5637,181.5582,0,U,27640,999,5596,.79538E-4,.123E-5,0
SORCE,2003-004A,2023-05-29T04:03:54.344736,14.91894774,.00195,39.9942,84.9030,23.1564,337.0101,0,U,27651,999,10469,.2748E-3,.2696E-4,0
NAVSTAR 51 (USA 166),2003-005A,2023-05-28T22:06:43.381152,2.00571735,.0131615,55.2968,259.3274,44.5107,54.4839,0,U,27663,999,14894,0,-.36E-6,0
USA 167,2003-008A,2023-05-28T10:34:42.718944,1.00274051,.0001072,8.7252,52.3254,354.3394,227.8273,0,U,27691,999,2176,0,.63E-6,0
NAVSTAR 52 (USA 168),2003-010A,2023-05-28T06:55:48.951264,2.00570504,.024865,55.1065,9.3659,316.3187,263.1758,0,U,27704,999,14772,0,-.88E-6,0
USA 169 (MILSTAR-2 4),2003-012A,2023-05-28T23:11:33.599904,1.00273114,.0100437,10.6440,38.0078,353.5150,354.7473,0,U,27711,999,2046,0,-.23E-5,0
GALAXY 12 (G-12),2003-013B,2023-05-28T10:06:22.440384,1.00199217,.0001124,4.1368,81.8840,282.1869,260.7469,0,U,27715,999,4090,0,.95E-6,0
ASIASAT 4,2003-014A,2023-05-29T02:48:42.980832,1.00272370,.0003076,1.8413,89.7163,329.4748,16.9284,0,U,27718,999,7374,0,-.207E-5,0
HELLAS-SAT 2,2003-020A,2023-05-28T13:17:12.571872,1.00271782,.0005833,4.5498,80.8328,344.2093,10.0968,0,U,27811,999,3165,0,-.69E-6,0
THURAYA-2,2003-026A,2023-05-28T21:48:41.636736,1.00272943,.0002333,7.1811,34.6024,22.7429,199.9984,0,U,27825,999,7316,0,.138E-5,0
OPTUS C1,2003-028B,2023-05-29T02:48:42.980832,1.00271346,.0006158,4.0700,82.5905,343.7893,17.9225,0,U,27831,999,7314,0,-.135E-5,0
MOST,2003-031D,2023-05-28T22:26:11.126400,14.20796307,.0009078,98.7066,156.4826,226.9928,133.0489,0,U,27843,999,3231,.63637E-4,.94E-6,0
CUTE-1 (CO-55),2003-031E,2023-05-28T21:50:55.438368,14.22772300,.0009893,98.6777,156.4499,174.2712,185.8581,0,U,27844,999,3299,.17304E-3,.345E-5,0
CUBESAT XI-IV (CO-57),2003-031J,2023-05-28T06:45:37.453536,14.22283507,.0009399,98.6814,156.2536,191.1279,168.9692,0,U,27848,999,3267,.14995E-3,.29E-5,0
GALAXY 23 (G-23),2003-034A,2023-05-28T10:18:42.393312,1.00272655,.0002978,0.3109,95.0834,329.9202,214.3894,0,U,27854,999,7735,0,.25E-6,0
SCISAT 1,2003-036A,2023-05-28T15:00:41.097024,14.78198563,.0007723,73.9329,222.3180,191.0245,169.0762,0,U,27858,999,6642,.94157E-4,.647E-5,0
